<?xml version="1.0" encoding="UTF-8"?>
<osm version="0.6" generator="seed-geojson-converter">
  <node id="1" lat="51.4746000" lon="0.2784000" />
  <node id="2" lat="51.4761000" lon="0.3075000" />
  <node id="3" lat="51.4778000" lon="0.3360000" />
  <node id="4" lat="52.5920000" lon="-1.9880000" />
  <node id="5" lat="52.6270000" lon="-1.9120000" />
  <node id="6" lat="52.6550000" lon="-1.8440000" />
  <node id="7" lat="52.6730000" lon="-1.7710000" />
  <node id="8" lat="53.3389000" lon="-2.7092000" />
  <node id="9" lat="53.3451000" lon="-2.6953000" />
  <node id="10" lat="53.3514000" lon="-2.6818000" />
  <node id="11" lat="53.7223000" lon="-0.4665000" />
  <node id="12" lat="53.7284000" lon="-0.4413000" />
  <node id="13" lat="53.7342000" lon="-0.4161000" />
  <node id="14" lat="54.9921000" lon="-1.5340000" />
  <node id="15" lat="54.9934000" lon="-1.5115000" />
  <node id="16" lat="54.9942000" lon="-1.4895000" />
  <node id="17" lat="53.3962000" lon="-2.9920000" />
  <node id="18" lat="53.4021000" lon="-2.9895000" />
  <node id="19" lat="53.4082000" lon="-2.9828000" />
  <node id="20" lat="50.9032000" lon="-1.3897000" />
  <node id="21" lat="50.9040000" lon="-1.3810000" />
  <node id="22" lat="50.9050000" lon="-1.3728000" />
  <node id="23" lat="50.3944000" lon="-4.1889000" />
  <node id="24" lat="50.3948000" lon="-4.1750000" />
  <node id="25" lat="50.3953000" lon="-4.1612000" />
  <node id="26" lat="56.0040000" lon="-3.4040000" />
  <node id="27" lat="56.0090000" lon="-3.3900000" />
  <node id="28" lat="56.0130000" lon="-3.3760000" />
  <node id="29" lat="51.5740000" lon="-2.7060000" />
  <node id="30" lat="51.5780000" lon="-2.6710000" />
  <node id="31" lat="51.5830000" lon="-2.6350000" />
  <node id="32" lat="50.5320000" lon="-3.6560000" />
  <node id="33" lat="50.5330000" lon="-3.6450000" />
  <node id="34" lat="50.5340000" lon="-3.6340000" />
  <node id="35" lat="51.7080000" lon="-4.9410000" />
  <node id="36" lat="51.7110000" lon="-4.9280000" />
  <node id="37" lat="51.7130000" lon="-4.9150000" />
  <node id="38" lat="51.4540000" lon="-2.6370000" />
  <node id="39" lat="51.4550000" lon="-2.6280000" />
  <node id="40" lat="51.4560000" lon="-2.6190000" />
  <node id="41" lat="54.9850000" lon="-1.5390000" />
  <node id="42" lat="54.9890000" lon="-1.5230000" />
  <node id="43" lat="54.9920000" lon="-1.5070000" />
  <node id="44" lat="53.4060000" lon="-2.9110000" />
  <node id="45" lat="53.4090000" lon="-2.9030000" />
  <node id="46" lat="53.4120000" lon="-2.8950000" />
  <node id="47" lat="51.4750000" lon="0.2840000" />
  <node id="48" lat="51.4760000" lon="0.3070000" />
  <node id="49" lat="51.4780000" lon="0.3310000" />
  <node id="50" lat="52.6990000" lon="-1.7300000" />
  <node id="51" lat="52.7250000" lon="-1.6850000" />
  <node id="52" lat="52.6110000" lon="-1.9520000" />
  <node id="53" lat="53.7210000" lon="-0.4700000" />
  <node id="54" lat="53.7260000" lon="-0.4530000" />
  <node id="55" lat="53.7310000" lon="-0.4360000" />
  <node id="56" lat="53.7340000" lon="-0.4220000" />
  <node id="57" lat="53.7370000" lon="-0.4080000" />
  <node id="58" lat="53.3360000" lon="-2.7150000" />
  <node id="59" lat="53.3420000" lon="-2.7010000" />
  <node id="60" lat="53.3480000" lon="-2.6870000" />
  <node id="61" lat="53.3540000" lon="-2.6730000" />
  <node id="62" lat="53.3600000" lon="-2.6590000" />
  <node id="63" lat="50.9020000" lon="-1.3900000" />
  <node id="64" lat="50.9040000" lon="-1.3820000" />
  <node id="65" lat="50.9060000" lon="-1.3740000" />
  <node id="66" lat="50.3940000" lon="-4.1890000" />
  <node id="67" lat="50.3950000" lon="-4.1760000" />
  <node id="68" lat="50.3960000" lon="-4.1630000" />
  <node id="69" lat="53.3980000" lon="-2.9910000" />
  <node id="70" lat="53.4040000" lon="-2.9850000" />
  <node id="71" lat="53.4100000" lon="-2.9790000" />
  <way id="1">
    <nd ref="1"/>
    <nd ref="2"/>
    <nd ref="3"/>
    <tag k="highway" v="primary"/>
    <tag k="name" v="Dartford Crossing"/>
    <tag k="operator" v="national_highways"/>
    <tag k="toll" v="yes"/>
    <tag k="direction" v="both"/>
    <tag k="road_class" v="crossing"/>
  </way>
  <way id="2">
    <nd ref="4"/>
    <nd ref="5"/>
    <nd ref="6"/>
    <nd ref="7"/>
    <tag k="highway" v="primary"/>
    <tag k="name" v="M6 Toll"/>
    <tag k="operator" v="m6_toll"/>
    <tag k="toll" v="yes"/>
    <tag k="direction" v="both"/>
    <tag k="road_class" v="motorway_toll"/>
  </way>
  <way id="3">
    <nd ref="8"/>
    <nd ref="9"/>
    <nd ref="10"/>
    <tag k="highway" v="primary"/>
    <tag k="name" v="Mersey Gateway"/>
    <tag k="operator" v="mersey_gateway"/>
    <tag k="toll" v="yes"/>
    <tag k="direction" v="both"/>
    <tag k="road_class" v="crossing"/>
  </way>
  <way id="4">
    <nd ref="11"/>
    <nd ref="12"/>
    <nd ref="13"/>
    <tag k="highway" v="primary"/>
    <tag k="name" v="Humber Bridge"/>
    <tag k="operator" v="humber_bridge"/>
    <tag k="toll" v="yes"/>
    <tag k="direction" v="both"/>
    <tag k="road_class" v="crossing"/>
  </way>
  <way id="5">
    <nd ref="14"/>
    <nd ref="15"/>
    <nd ref="16"/>
    <tag k="highway" v="primary"/>
    <tag k="name" v="Tyne Tunnel"/>
    <tag k="operator" v="tyne_tunnel"/>
    <tag k="toll" v="yes"/>
    <tag k="direction" v="both"/>
    <tag k="road_class" v="tunnel_toll"/>
  </way>
  <way id="6">
    <nd ref="17"/>
    <nd ref="18"/>
    <nd ref="19"/>
    <tag k="highway" v="primary"/>
    <tag k="name" v="Mersey Tunnels"/>
    <tag k="operator" v="mersey_tunnels"/>
    <tag k="toll" v="yes"/>
    <tag k="direction" v="both"/>
    <tag k="road_class" v="tunnel_toll"/>
  </way>
  <way id="7">
    <nd ref="20"/>
    <nd ref="21"/>
    <nd ref="22"/>
    <tag k="highway" v="primary"/>
    <tag k="name" v="Itchen Bridge"/>
    <tag k="operator" v="southampton_city"/>
    <tag k="toll" v="yes"/>
    <tag k="direction" v="both"/>
    <tag k="road_class" v="bridge_toll"/>
  </way>
  <way id="8">
    <nd ref="23"/>
    <nd ref="24"/>
    <nd ref="25"/>
    <tag k="highway" v="primary"/>
    <tag k="name" v="Tamar Bridge"/>
    <tag k="operator" v="tamar_crossings"/>
    <tag k="toll" v="yes"/>
    <tag k="direction" v="eastbound"/>
    <tag k="road_class" v="bridge_toll"/>
  </way>
  <way id="9">
    <nd ref="26"/>
    <nd ref="27"/>
    <nd ref="28"/>
    <tag k="highway" v="primary"/>
    <tag k="name" v="Forth Road Bridge"/>
    <tag k="operator" v="forth_bridge"/>
    <tag k="toll" v="yes"/>
    <tag k="direction" v="both"/>
    <tag k="road_class" v="bridge_toll"/>
  </way>
  <way id="10">
    <nd ref="29"/>
    <nd ref="30"/>
    <nd ref="31"/>
    <tag k="highway" v="primary"/>
    <tag k="name" v="Severn Crossing"/>
    <tag k="operator" v="severn_crossing"/>
    <tag k="toll" v="yes"/>
    <tag k="direction" v="eastbound"/>
    <tag k="road_class" v="bridge_toll"/>
  </way>
  <way id="11">
    <nd ref="32"/>
    <nd ref="33"/>
    <nd ref="34"/>
    <tag k="highway" v="primary"/>
    <tag k="name" v="Whitestone Bridge"/>
    <tag k="operator" v="local_bridge"/>
    <tag k="toll" v="yes"/>
    <tag k="direction" v="both"/>
    <tag k="road_class" v="bridge_toll"/>
  </way>
  <way id="12">
    <nd ref="35"/>
    <nd ref="36"/>
    <nd ref="37"/>
    <tag k="highway" v="primary"/>
    <tag k="name" v="Cleddau Bridge"/>
    <tag k="operator" v="cleddau_bridge"/>
    <tag k="toll" v="yes"/>
    <tag k="direction" v="both"/>
    <tag k="road_class" v="bridge_toll"/>
  </way>
  <way id="13">
    <nd ref="38"/>
    <nd ref="39"/>
    <nd ref="40"/>
    <tag k="highway" v="primary"/>
    <tag k="name" v="Clifton Suspension Bridge"/>
    <tag k="operator" v="clifton_bridge"/>
    <tag k="toll" v="yes"/>
    <tag k="direction" v="both"/>
    <tag k="road_class" v="bridge_toll"/>
  </way>
  <way id="14">
    <nd ref="41"/>
    <nd ref="42"/>
    <nd ref="43"/>
    <tag k="highway" v="primary"/>
    <tag k="name" v="A19 Tyne Crossing"/>
    <tag k="operator" v="tyne_tunnel"/>
    <tag k="toll" v="yes"/>
    <tag k="direction" v="northbound"/>
    <tag k="road_class" v="tunnel_toll"/>
  </way>
  <way id="15">
    <nd ref="43"/>
    <nd ref="42"/>
    <nd ref="41"/>
    <tag k="highway" v="primary"/>
    <tag k="name" v="A19 Tyne Crossing South"/>
    <tag k="operator" v="tyne_tunnel"/>
    <tag k="toll" v="yes"/>
    <tag k="direction" v="southbound"/>
    <tag k="road_class" v="tunnel_toll"/>
  </way>
  <way id="16">
    <nd ref="44"/>
    <nd ref="45"/>
    <nd ref="46"/>
    <tag k="highway" v="primary"/>
    <tag k="name" v="East Link Bridge"/>
    <tag k="operator" v="local_bridge"/>
    <tag k="toll" v="yes"/>
    <tag k="direction" v="both"/>
    <tag k="road_class" v="bridge_toll"/>
  </way>
  <way id="17">
    <nd ref="47"/>
    <nd ref="48"/>
    <nd ref="49"/>
    <tag k="highway" v="primary"/>
    <tag k="name" v="QEII Bridge"/>
    <tag k="operator" v="national_highways"/>
    <tag k="toll" v="yes"/>
    <tag k="direction" v="both"/>
    <tag k="road_class" v="crossing"/>
  </way>
  <way id="18">
    <nd ref="7"/>
    <nd ref="50"/>
    <nd ref="51"/>
    <tag k="highway" v="primary"/>
    <tag k="name" v="M6 Toll North"/>
    <tag k="operator" v="m6_toll"/>
    <tag k="toll" v="yes"/>
    <tag k="direction" v="both"/>
    <tag k="road_class" v="motorway_toll"/>
  </way>
  <way id="19">
    <nd ref="4"/>
    <nd ref="52"/>
    <nd ref="5"/>
    <tag k="highway" v="primary"/>
    <tag k="name" v="M6 Toll South"/>
    <tag k="operator" v="m6_toll"/>
    <tag k="toll" v="yes"/>
    <tag k="direction" v="both"/>
    <tag k="road_class" v="motorway_toll"/>
  </way>
  <way id="20">
    <nd ref="53"/>
    <nd ref="54"/>
    <nd ref="55"/>
    <tag k="highway" v="primary"/>
    <tag k="name" v="Humber Bridge West"/>
    <tag k="operator" v="humber_bridge"/>
    <tag k="toll" v="yes"/>
    <tag k="direction" v="both"/>
    <tag k="road_class" v="crossing"/>
  </way>
  <way id="21">
    <nd ref="55"/>
    <nd ref="56"/>
    <nd ref="57"/>
    <tag k="highway" v="primary"/>
    <tag k="name" v="Humber Bridge East"/>
    <tag k="operator" v="humber_bridge"/>
    <tag k="toll" v="yes"/>
    <tag k="direction" v="both"/>
    <tag k="road_class" v="crossing"/>
  </way>
  <way id="22">
    <nd ref="58"/>
    <nd ref="59"/>
    <nd ref="60"/>
    <tag k="highway" v="primary"/>
    <tag k="name" v="Mersey Gateway West"/>
    <tag k="operator" v="mersey_gateway"/>
    <tag k="toll" v="yes"/>
    <tag k="direction" v="both"/>
    <tag k="road_class" v="crossing"/>
  </way>
  <way id="23">
    <nd ref="60"/>
    <nd ref="61"/>
    <nd ref="62"/>
    <tag k="highway" v="primary"/>
    <tag k="name" v="Mersey Gateway East"/>
    <tag k="operator" v="mersey_gateway"/>
    <tag k="toll" v="yes"/>
    <tag k="direction" v="both"/>
    <tag k="road_class" v="crossing"/>
  </way>
  <way id="24">
    <nd ref="63"/>
    <nd ref="64"/>
    <nd ref="65"/>
    <tag k="highway" v="primary"/>
    <tag k="name" v="Itchen Bridge North"/>
    <tag k="operator" v="southampton_city"/>
    <tag k="toll" v="yes"/>
    <tag k="direction" v="northbound"/>
    <tag k="road_class" v="bridge_toll"/>
  </way>
  <way id="25">
    <nd ref="65"/>
    <nd ref="64"/>
    <nd ref="63"/>
    <tag k="highway" v="primary"/>
    <tag k="name" v="Itchen Bridge South"/>
    <tag k="operator" v="southampton_city"/>
    <tag k="toll" v="yes"/>
    <tag k="direction" v="southbound"/>
    <tag k="road_class" v="bridge_toll"/>
  </way>
  <way id="26">
    <nd ref="66"/>
    <nd ref="67"/>
    <nd ref="68"/>
    <tag k="highway" v="primary"/>
    <tag k="name" v="Tamar Bridge Eastbound"/>
    <tag k="operator" v="tamar_crossings"/>
    <tag k="toll" v="yes"/>
    <tag k="direction" v="eastbound"/>
    <tag k="road_class" v="bridge_toll"/>
  </way>
  <way id="27">
    <nd ref="68"/>
    <nd ref="67"/>
    <nd ref="66"/>
    <tag k="highway" v="primary"/>
    <tag k="name" v="Tamar Bridge Westbound"/>
    <tag k="operator" v="tamar_crossings"/>
    <tag k="toll" v="yes"/>
    <tag k="direction" v="westbound"/>
    <tag k="road_class" v="bridge_toll"/>
  </way>
  <way id="28">
    <nd ref="69"/>
    <nd ref="70"/>
    <nd ref="71"/>
    <tag k="highway" v="primary"/>
    <tag k="name" v="Kingsway Tunnel"/>
    <tag k="operator" v="mersey_tunnels"/>
    <tag k="toll" v="yes"/>
    <tag k="direction" v="both"/>
    <tag k="road_class" v="tunnel_toll"/>
  </way>
</osm>
